"{\n    \"CCSDS_OMM_VERS\": \"2.0\",\n    \"COMMENT\": \"GENERATED VIA SPACE-TRACK.ORG API\",\n    \"CREATION_DATE\": \"2025-08-31T02:26:50\",\n    \"ORIGINATOR\": \"18 SPCS\",\n    \"OBJECT_NAME\": \"NAVSTAR 73 (USA 260)\",\n    \"OBJECT_ID\": \"2015-013A\",\n    \"CENTER_NAME\": \"EARTH\",\n    \"REF_FRAME\": \"TEME\",\n    \"TIME_SYSTEM\": \"UTC\",\n    \"MEAN_ELEMENT_THEORY\": \"SGP4\",\n    \"EPOCH\": \"2025-08-30T09:18:34.364736\",\n    \"MEAN_MOTION\": \"2.0056879667\",\n    \"ECCENTRICITY\": \"0.010147614\",\n    \"INCLINATION\": \"53.223118\",\n    \"RA_OF_ASC_NODE\": \"216.2071\",\n    \"ARG_OF_PERICENTER\": \"35.884993\",\n    \"MEAN_ANOMALY\": \"324.77731\",\n    \"EPHEMERIS_TYPE\": \"0\",\n    \"CLASSIFICATION_TYPE\": \"U\",\n    \"NORAD_CAT_ID\": \"40534\",\n    \"ELEMENT_SET_NO\": \"999\",\n    \"REV_AT_EPOCH\": \"7599\",\n    \"BSTAR\": \"0\",\n    \"MEAN_MOTION_DOT\": \"0.000000555508\",\n    \"MEAN_MOTION_DDOT\": \"0\",\n    \"TLE_LINE0\": \"0 NAVSTAR 73 (USA 260)\",\n    \"TLE_LINE1\": \"1 40534U 15013A   25242.38789774  .00000056  00000-0  00000-0 0  9995\",\n    \"TLE_LINE2\": \"2 40534  53.2231 216.2071 0101476  35.8850 324.7773  2.00568797 75998\",\n    \"SEMIMAJOR_AXIS\": \"26559.889\",\n    \"PERIOD\": \"717.958\",\n    \"APOAPSIS\": \"20451.274\",\n    \"PERIAPSIS\": \"19912.235\",\n    \"OBJECT_TYPE\": \"PAYLOAD\",\n    \"DECAYED\": \"0\"\n}"